GLOBALSTAR M075         
1 37192U 10054E   25358.21427079 -.00000088  00000+0  85706-4 0  9993
2 37192  52.0022 322.9423 0000480 109.7567 352.3949 12.62261317699849
GLOBALSTAR M073         
1 37193U 10054F   26005.97706259 -.00000102  00000+0  80666-5 0  9995
2 37193  52.0032 198.0632 0001217  76.8195  87.4931 12.62268862703446
GLOBALSTAR M083         
1 37739U 11033A   26005.63992869 -.00000114  00000+0 -57196-4 0  9991
2 37739  51.9843 147.5387 0000903  89.9341 283.5347 12.62266283672423
GLOBALSTAR M088         
1 37740U 11033B   26006.34114322 -.00000081  00000+0  12634-3 0  9991
2 37740  52.0230  51.4389 0000420 134.7506 306.1963 12.62271384668056
GLOBALSTAR M091         
1 37741U 11033C   26006.33969843 -.00000098  00000+0  34834-4 0  9992
2 37741  52.0021  14.6495 0000102  78.0115 295.4735 12.62268450668841
GLOBALSTAR M085         
1 37742U 11033D   26006.16780345 -.00000085  00000+0  10278-3 0  9993
2 37742  52.0150 326.3234 0000453  23.7806 348.8019 12.62267719669332
GLOBALSTAR M081         
1 37743U 11033E   25351.59018587 -.00000087  00000+0  92331-4 0  9998
2 37743  51.9980  28.5496 0000222  94.7932  71.3857 12.62270971667009
GLOBALSTAR M089         
1 37744U 11033F   26006.26949218 -.00000068  00000+0  19896-3 0  9998
2 37744  51.9937 282.8243 0000923  76.7926  98.9549 12.62263265670339
